IRIDIUM 159             
1 43578U 18061K   24019.63451762  .00000200  00000+0  64215-4 0  9996
2 43578  86.3937  64.2940 0002339  96.3427 263.8035 14.34217932287312
IRIDIUM 180             
1 43922U 19002A   24019.91307102  .00000553  00000+0  19053-3 0  9994
2 43922  86.3982   1.0552 0002251  91.8318 268.3135 14.34225275262969
IRIDIUM 176             
1 43923U 19002B   24019.92873721  .00002014  00000+0  31522-3 0  9990
2 43923  86.6112   1.0784 0002588  89.4471 270.7043 14.72286709269885
IRIDIUM 168             
1 43924U 19002C   24019.41835424  .00000545  00000+0  18766-3 0  9995
2 43924  86.3984   1.3147 0002259  90.5326 269.6128 14.34224868262872
IRIDIUM 173             
1 43925U 19002D   24019.96382815  .00000440  00000+0  15015-3 0  9995
2 43925  86.3980   1.0116 0002302  87.3413 272.8046 14.34216392262937
IRIDIUM 169             
1 43926U 19002E   24019.58037812  .00000368  00000+0  11372-3 0  9999
2 43926  86.4210  32.7753 0003573  41.3351 318.8117 14.38611826263762
IRIDIUM 172             
1 43927U 19002F   24019.95748410  .00000501  00000+0  17196-3 0  9993
2 43927  86.3980   1.0196 0002185  88.7177 271.4269 14.34216244262947
IRIDIUM 175             
1 43928U 19002G   24019.92274864  .00001736  00000+0  27160-3 0  9991
2 43928  86.1530 342.6703 0002403  85.0931 275.0560 14.72209137269874
